FLOCK 4G-30             
1 62679U 25009BY  26068.70871344  .00013147  00000+0  49475-3 0  9999
2 62679  97.3969 150.6012 0003795 342.4152  17.6955 15.27244548121341
STARLINK-32872          
1 63019U 25032Q   26068.08694343  .00036976  00000+0  13464-2 0  9990
2 63019  43.0033 339.8177 0001852 257.3444 102.7200 15.27581564 60526
